[{"OBJECT_NAME":"STARLINK-30071","OBJECT_ID":"2023-067W","EPOCH":"2026-03-09T22:00:01.999584","MEAN_MOTION":15.13965788,"ECCENTRICITY":0.00017095,"INCLINATION":43.0002,"RA_OF_ASC_NODE":272.6335,"ARG_OF_PERICENTER":262.7038,"MEAN_ANOMALY":8.0429,"EPHEMERIS_TYPE":0,"CLASSIFICATION_TYPE":"U","NORAD_CAT_ID":56708,"ELEMENT_SET_NO":999,"REV_AT_EPOCH":567,"BSTAR":0.063027709,"MEAN_MOTION_DOT":0.01258349,"MEAN_MOTION_DDOT":0},{"OBJECT_NAME":"FENGYUN 1C DEB","OBJECT_ID":"1999-025DFQ","EPOCH":"2026-03-09T11:05:09.183840","MEAN_MOTION":15.08584918,"ECCENTRICITY":0.01333512,"INCLINATION":99.3393,"RA_OF_ASC_NODE":158.3034,"ARG_OF_PERICENTER":18.9579,"MEAN_ANOMALY":341.654,"EPHEMERIS_TYPE":0,"CLASSIFICATION_TYPE":"U","NORAD_CAT_ID":33679,"ELEMENT_SET_NO":999,"REV_AT_EPOCH":95428,"BSTAR":0.0014594523,"MEAN_MOTION_DOT":0.00028083,"MEAN_MOTION_DDOT":0}]
